COSMOS 2251 DEB         
1 35982U 93036AVY 26198.93269862  .00000791  00000+0  15266-3 0  9998
2 35982  74.0573 290.7044 0065524 302.0640  57.4175 14.63933841893436
COSMOS 2251 DEB         
1 35987U 93036AWD 26185.32885817  .00002837  00000+0  81991-3 0  9997
2 35987  73.9995 307.2624 0049347  24.4542 335.8940 14.44318075640030
COSMOS 2251 DEB         
1 35989U 93036AWF 26193.83647068  .00000155  00000+0  60515-4 0  9999
2 35989  74.0369 253.7269 0023526 286.9989  72.8586 14.37317732902261
COSMOS 2251 DEB         
1 35993U 93036AWK 26196.90901785  .00001203  00000+0  21974-3 0  9994
2 35993  74.0144 277.5985 0029437  46.1334 314.2259 14.66832269635962
COSMOS 2251 DEB         
1 35996U 93036AWN 26182.98421988  .00010824  00000+0  56405-3 0  9998
2 35996  74.0179  46.5680 0081490  85.6974 275.3526 15.13148580753665
COSMOS 2251 DEB         
1 35997U 93036AWP 26195.19142283  .00001092  00000+0  27438-3 0  9995
2 35997  74.0451 145.4130 0014954 174.6610 185.4714 14.52401464739822
COSMOS 2251 DEB         
1 36000U 93036AWS 26185.92193490  .00056609  00000+0  43042-2 0  9999
2 36000  73.9853  33.2824 0030392 102.0233 258.4363 15.01477293632232
COSMOS 2251 DEB         
1 36005U 93036AWX 26198.25921564  .00000211  00000+0  63397-4 0  9990
2 36005  74.0257  48.7988 0060351 132.6400 227.9870 14.47603231907176
COSMOS 2251 DEB         
1 36045U 93036AXG 26197.16815451  .00004415  00000+0  64605-3 0  9992
2 36045  73.7619 352.4703 0043617 333.0753  26.8156 14.75345138115604
COSMOS 2251 DEB         
1 36046U 93036AXH 26183.44750743  .00001857  00000+0  33400-3 0  9997
2 36046  74.0145 247.4781 0057487 342.4826  33.7000 14.66342738669597
COSMOS 2251 DEB         
1 36047U 93036AXJ 26198.87850174  .00016401  00000+0  99023-3 0  9994
2 36047  74.0258 250.1772 0008088 286.5804  73.4500 15.10674282692034
COSMOS 2251 DEB         
1 36048U 93036AXK 26198.87698095  .00000222  00000+0  81698-4 0  9991
2 36048  74.0557 259.8528 0027542 260.6665 217.5563 14.38158845886234
COSMOS 2251 DEB         
1 36049U 93036AXL 26187.14163602  .00004348  00000+0  82792-3 0  9999
2 36049  74.0294  84.9640 0011311 126.0970 234.1247 14.64334315883694
COSMOS 2251 DEB         
1 36050U 93036AXM 26198.49672154  .00003379  00000+0  22829-3 0  9996
2 36050  74.0305 111.2554 0081382 134.0234 226.7701 15.04319903702912
COSMOS 2251 DEB         
1 36053U 93036AXQ 26197.39655396  .00002419  00000+0  50668-3 0  9992
2 36053  73.8709  97.8188 0029078 359.9299   0.1856 14.60070274905898
COSMOS 2251 DEB         
1 36058U 93036AXV 26196.40830088  .00000974  00000+0  20760-3 0  9995
2 36058  74.0231 343.9386 0045097  62.1052 298.4670 14.59726125692429
COSMOS 2251 DEB         
1 36060U 93036AXX 26198.26591115  .00000344  00000+0  11174-3 0  9999
2 36060  74.0274 192.8557 0016451 244.8680 115.0770 14.42439715881319
COSMOS 2251 DEB         
1 36061U 93036AXY 26198.02592564  .00000260  00000+0  10147-3 0  9999
2 36061  74.0247 323.7509 0038902 359.3683   0.7413 14.34048565682045
COSMOS 2251 DEB         
1 36073U 93036AYL 26195.59720529  .00000196  00000+0  77655-4 0  9991
2 36073  74.0329 290.4423 0025675 309.2115  50.6758 14.35198926732759
COSMOS 2251 DEB         
1 36074U 93036AYM 26197.70003746  .00000945  00000+0  27437-3 0  9996
2 36074  73.9907 297.3710 0045273 339.9819  19.9560 14.45192439890288
COSMOS 2251 DEB         
1 36366U 93036AYT 26198.47025620  .00001333  00000+0  45562-3 0  9991
2 36366  74.0629 236.8358 0086881 214.3360 145.2160 14.35186069893966
COSMOS 2251 DEB         
1 36367U 93036AYU 26195.37654393  .00000968  00000+0  64516-3 0  9996
2 36367  74.0974 230.8000 0262860 253.0984 104.1174 13.87043083604911
COSMOS 2251 DEB         
1 36369U 93036AYW 26189.22701451  .00004249  00000+0  59458-3 0  9998
2 36369  74.0296  24.4984 0013032  60.6626 299.5849 14.77842972889836
COSMOS 2251 DEB         
1 36371U 93036AYY 26195.45771860  .00004245  00000+0  63092-3 0  9999
2 36371  74.0110 104.4127 0008173 110.0194 250.1860 14.75288659745923
COSMOS 2251 DEB         
1 36379U 93036AZG 26196.55349860  .00000257  00000+0  95533-4 0  9995
2 36379  74.0121 271.7190 0046859 348.7490  74.5386 14.36399555679127
COSMOS 2251 DEB         
1 36385U 93036AZN 26198.96165259  .00003097  00000+0  38430-3 0  9994
2 36385  73.9676  88.0407 0133111 209.9644 149.3867 14.76991184883058
COSMOS 2251 DEB         
1 36420U 93036AZT 26198.40654221  .00000122  00000+0  50065-4 0  9990
2 36420  74.0355 237.1128 0019664 276.2936  99.3244 14.37077313881493
COSMOS 2251 DEB         
1 36423U 93036AZW 26189.62229825  .00081877  00000+0  42282-2 0  9991
2 36423  73.7702 150.3134 0045994 116.5801 244.0117 15.14970004281502
COSMOS 2251 DEB         
1 36430U 93036BAD 26194.36799993  .00000377  00000+0  15388-3 0  9998
2 36430  74.0041  82.4247 0096504 183.0709 176.9861 14.28171661675927
COSMOS 2251 DEB         
1 36437U 93036BAL 26198.62792247  .00002975  00000+0  45066-3 0  9995
2 36437  73.9429 329.1207 0019448 138.6043 221.6608 14.74526510692449
COSMOS 2251 DEB         
1 36439U 93036BAN 26188.04885886  .00000480  00000+0  46480-3 0  9994
2 36439  73.9692  67.2967 0424002 359.9620   0.1381 13.48376558613931
COSMOS 2251 DEB         
1 36441U 93036BAQ 26189.60279942  .00003635  00000+0  19754-3 0  9999
2 36441  73.8360 276.1301 0104301 330.9277  28.6129 15.10338475901002
COSMOS 2251 DEB         
1 36451U 93036BBA 26188.05534784  .00002033  00000+0  82457-3 0  9997
2 36451  73.9537 324.6228 0183596 103.3151 258.8537 14.19540614871524
COSMOS 2251 DEB         
1 36453U 93036BBC 26198.43861317  .00001215  00000+0  28536-3 0  9996
2 36453  73.9229 100.3384 0068481 315.4445 166.5616 14.54203531876164
COSMOS 2251 DEB         
1 36459U 93036BBJ 26195.05656432  .00001545  00000+0  58833-3 0  9996
2 36459  74.0464 333.8617 0117253  18.5366 341.9998 14.27975202109252
COSMOS 2251 DEB         
1 36470U 93036BBV 26198.60531683  .00188718  00000+0  27289-2 0  9991
2 36470  73.8201 150.1302 0021065 231.6638 128.2684 15.54934273694012
COSMOS 2251 DEB         
1 36528U 93036BCN 26197.11763764  .00000898  00000+0  33485-3 0  9995
2 36528  74.0154 112.4667 0083643 111.1632 249.8482 14.31405339675089
COSMOS 2251 DEB         
1 36531U 93036BCR 26198.79091762  .00003225  00000+0  10194-2 0  9994
2 36531  74.0888 336.4608 0149767 302.1732  56.4966 14.34372114626041
COSMOS 2251 DEB         
1 36533U 93036BCT 26197.35751545  .00000507  00000+0  13505-3 0  9999
2 36533  74.0104  69.2005 0048039 166.2466 194.0016 14.50422114876102
COSMOS 2251 DEB         
1 36539U 93036BCZ 26198.88100391  .00001211  00000+0  25412-3 0  9994
2 36539  74.0221   0.4739 0027343  86.7594 273.6699 14.60558350871167
COSMOS 2251 DEB         
1 36540U 93036BDA 26198.79844187  .00001825  00000+0  38109-3 0  9992
2 36540  74.0282 126.3359 0014070 150.4821 209.7142 14.60580057891778
COSMOS 2251 DEB         
1 36550U 93036BDL 26194.60082834  .00000572  00000+0  23407-3 0  9995
2 36550  74.0436 167.4561 0076921 167.8918 192.4104 14.27845314876337
COSMOS 2251 DEB         
1 36551U 93036BDM 26198.64932272  .00009565  00000+0  53849-3 0  9998
2 36551  73.8835 284.2516 0036685 187.2437 172.8231 15.12756898702010
COSMOS 2251 DEB         
1 36557U 93036BDT 26192.33675633  .00010746  00000+0  12147-2 0  9997
2 36557  73.9787  68.1447 0021937 160.6494 199.5523 14.86390252370184
COSMOS 2251 DEB         
1 36558U 93036BDU 26196.75017686  .00001318  00000+0  30100-3 0  9991
2 36558  74.0427 106.9475 0012435 145.4985 214.6989 14.56736565883989
COSMOS 2251 DEB         
1 36559U 93036BDV 26196.45845687  .00001084  00000+0  58322-3 0  9995
2 36559  74.1259   1.8058 0261126 344.9393  14.4065 13.98037154840927
COSMOS 2251 DEB         
1 36614U 93036BEC 26195.52240519  .00001939  00000+0  38654-3 0  9992
2 36614  74.0236 125.1965 0014947 149.1538 211.0510 14.62635748687365
COSMOS 2251 DEB         
1 36622U 93036BEL 26198.41593414  .00001342  00000+0  18477-3 0  9996
2 36622  74.0125  79.9540 0066363 161.3003 199.0633 14.77855616699490
COSMOS 2251 DEB         
1 36632U 93036BEW 26189.47726062  .00001056  00000+0  31392-3 0  9993
2 36632  74.0006 265.3802 0035313 326.0989  33.7910 14.44121815682131
COSMOS 2251 DEB         
1 37084U 93036BFE 26194.04844959  .00004522  00000+0  30309-3 0  9998
2 37084  74.0272  87.8614 0090390 112.0151 249.0671 15.03846455694562
COSMOS 2251 DEB         
1 37089U 93036BFK 26189.12000412  .00003456  00000+0  69806-3 0  9993
2 37089  74.0344 112.9720 0130087 161.4329 199.1649 14.56534448691265
COSMOS 2251 DEB         
1 37094U 93036BFQ 26195.04454633  .00001429  00000+0  45358-3 0  9999
2 37094  74.1097  89.7121 0081784 359.6862   0.4227 14.38998913875738
COSMOS 2251 DEB         
1 37095U 93036BFR 26198.59321281  .00001109  00000+0  60546-3 0  9996
2 37095  73.8470 167.6079 0192203 187.3140 172.5186 14.04297627656797
COSMOS 2251 DEB         
1 37101U 93036BFX 26196.23968841  .00002322  00000+0  40994-3 0  9995
2 37101  74.0309  40.1974 0043281  72.4966 288.0926 14.67451407688167
COSMOS 2251 DEB         
1 37108U 93036BGE 26198.53142160  .00001300  00000+0  37836-3 0  9991
2 37108  74.0421  38.7139 0092825  61.5365 299.5104 14.42751181886323
COSMOS 2251 DEB         
1 37118U 93036BGQ 26198.82410102  .00005648  00000+0  68070-3 0  9991
2 37118  74.0140  14.2353 0005742  60.5043 299.6707 14.84071650687661
COSMOS 2251 DEB         
1 37126U 93036BGY 26182.06920433  .00002134  00000+0  29639-3 0  9997
2 37126  73.9518 321.9127 0120402 152.8832 207.8701 14.73661509110499
COSMOS 2251 DEB         
1 37132U 93036BHE 26187.72505513  .00004936  00000+0  63502-3 0  9999
2 37132  74.0004 187.7732 0042165 292.3663  67.3047 14.80782548654624
COSMOS 2251 DEB         
1 37270U 93036BHJ 26198.82049696  .00000877  00000+0  70757-3 0  9990
2 37270  73.9331 341.1173 0392035 313.9185  43.0172 13.61380166800223
COSMOS 2251 DEB         
1 37278U 93036BHS 26179.19659990  .00004956  00000+0  16417-2 0  9995
2 37278  73.7828 352.6907 0296770 140.9590 335.0560 14.16038419666237
